GOES 1 (SMS-C) [-]      
1 08366U 75100A   17051.58889397 -.00000208  00000-0  00000+0 0  9997
2 08366  12.2304 319.9048 0005675 289.0996  26.2881  1.00303087151070
GOES 2 [-]              
1 10061U 77048A   17050.95603878  .00000081  00000-0  00000+0 0  9991
2 10061  13.4347 328.8926 0017705 315.1781 273.2311  0.99393497 89678
GOES 3 [-]              
1 10953U 78062A   17051.29179186 -.00000144  00000-0  00000+0 0  9997
2 10953  13.5657 332.4329 0003893 303.0774 158.3407  0.99365132 94773
GOES 4 [-]              
1 11964U 80074A   17049.82093001 -.00000039  00000-0  00000+0 0  9996
2 11964  14.3261 336.1899 0033312   6.4540 189.8766  0.99226809 93844
GOES 5 [-]              
1 12472U 81049A   17051.26278424 -.00000275  00000-0  00000+0 0  9991
2 12472  14.4559 346.3320 0005432 260.6775 284.3008  1.00309947 88839
GOES 6 [-]              
1 14050U 83041A   17051.44085132 -.00000238  00000-0  00000+0 0  9990
2 14050  14.6566 351.1853 0002707 247.9836 346.7400  1.00309774181927
GOES 7 [-]              
1 17561U 87022A   17051.13126380 -.00000241  00000-0  00000+0 0  9994
2 17561  15.1416   7.0543 0006168 293.6980 233.5387  0.99907526 92972
GOES 8 [-]              
1 23051U 94022A   17051.21022435 -.00000034  00000-0  00000+0 0  9998
2 23051  11.2443  40.0111 0009562 243.5006 150.2936  0.98905389 90452
GOES 9 [-]              
1 23581U 95025A   17050.82531382 -.00000236  00000-0  00000+0 0  9996
2 23581  10.7459  39.3850 0000901 242.0192 295.4725  0.98801337 79116
GOES 10 [-]             
1 24786U 97019A   17050.54224147  .00000071  00000-0  00000+0 0  9992
2 24786   9.1068  43.9890 0029360 163.1586 197.0300  0.99120444 72312
GOES 11 [-]             
1 26352U 00022A   17051.59400998 -.00000249  00000-0  00000+0 0  9995
2 26352   4.7201  75.1268 0004821 181.3769 233.7315  0.99043460 61289
GOES 12 [-]             
1 26871U 01031A   17050.97888310 -.00000084  00000-0  00000+0 0  9998
2 26871   6.1249  60.8955 0011540 231.9574 306.7433  0.99135197 56981
GOES 13 [+]             
1 29155U 06018A   17050.79056015 -.00000260  00000-0  00000+0 0  9991
2 29155   0.3315  99.3786 0004015 313.8522 306.7813  1.00274338 39381
GOES 14 [S]             
1 35491U 09033A   17050.87257772 -.00000103  00000-0  00000+0 0  9999
2 35491   0.0292 129.7464 0006464 113.4475 116.7154  1.00273391 28028
GOES 15 [+]             
1 36411U 10008A   17050.95908492  .00000080  00000-0  00000+0 0  9990
2 36411   0.0525 245.5877 0000994 250.6684 223.7270  1.00276240 25552
GOES 16 [S]             
1 41866U 16071A   17050.83204426 -.00000192  00000-0  00000+0 0  9994
2 41866   0.0475 295.7527 0001862  78.1214 346.1060  1.00272079   974
